{"type": "FeatureCollection", "features": [ {"type": "Feature", "properties": {"norad_id": 41469, "name": "IRNSS-1G", "group": "gnss", "lat": 4.514682702817036, "lon": 172.82084682641602, "alt_km": 35787.10100010927, "timestamp": "2025-12-23T20:42:37.317687+00:00", "meta": {"OBJECT_NAME": "IRNSS-1G", "OBJECT_ID": "2016-027A", "EPOCH": "2025-12-22T18:54:58.881600", "MEAN_MOTION": 1.00275148, "ECCENTRICITY": 0.0002638, "INCLINATION": 4.7591, "RA_OF_ASC_NODE": 101.84, "ARG_OF_PERICENTER": 328.4148, "MEAN_ANOMALY": 74.6155, "EPHEMERIS_TYPE": 0, "CLASSIFICATION_TYPE": "U", "NORAD_CAT_ID": 41469, "ELEMENT_SET_NO": 999, "REV_AT_EPOCH": 3541, "BSTAR": 0, "MEAN_MOTION_DOT": -3.15e-06, "MEAN_MOTION_DDOT": 0}, "tle": {"line1": "1 41469U 16027A   25356.78818150 -.00000315  00000+0  00000+0 0  9997", "line2": "2 41469   4.7591 101.8400 0002638 328.4148  74.6155  1.00275148 35414"}}, "geometry": {"type": "Point", "coordinates": [172.82084682641602, 4.514682702817036]}}, {"type": "Feature", "properties": {"norad_id": 41549, "name": "GSAT0211 (GALILEO 14)", "group": "gnss", "lat": -54.08967647863437, "lon": 152.38583166510978, "alt_km": 23229.870484254596, "timestamp": "2025-12-23T20:42:37.317698+00:00", "meta": {"OBJECT_NAME": "GSAT0211 (GALILEO 14)", "OBJECT_ID": "2016-030A", "EPOCH": "2025-12-22T05:38:05.943264", "MEAN_MOTION": 1.70473275, "ECCENTRICITY": 0.00040882, "INCLINATION": 55.1491, "RA_OF_ASC_NODE": 226.562, "ARG_OF_PERICENTER": 17.521, "MEAN_ANOMALY": 342.5988, "EPHEMERIS_TYPE": 0, "CLASSIFICATION_TYPE": "U", "NORAD_CAT_ID": 41549, "ELEMENT_SET_NO": 999, "REV_AT_EPOCH": 5965, "BSTAR": 0, "MEAN_MOTION_DOT": 7.3e-07, "MEAN_MOTION_DDOT": 0}, "tle": {"line1": "1 41549U 16030A   25356.23479101  .00000073  00000+0  00000+0 0  9999", "line2": "2 41549  55.1491 226.5620 0004088  17.5210 342.5988  1.70473275 59659"}}, "geometry": {"type": "Point", "coordinates": [152.38583166510978, -54.08967647863437]}}, {"type": "Feature", "properties": {"norad_id": 41550, "name": "GSAT0210 (GALILEO 13)", "group": "gnss", "lat": 44.522787858700966, "lon": 3.286664923913046, "alt_km": 23216.489944845976, "timestamp": "2025-12-23T20:42:37.317714+00:00", "meta": {"OBJECT_NAME": "GSAT0210 (GALILEO 13)", "OBJECT_ID": "2016-030B", "EPOCH": "2025-12-21T21:44:04.443936", "MEAN_MOTION": 1.70473441, "ECCENTRICITY": 5.71e-05, "INCLINATION": 55.1488, "RA_OF_ASC_NODE": 226.5692, "ARG_OF_PERICENTER": 197.0028, "MEAN_ANOMALY": 163.1021, "EPHEMERIS_TYPE": 0, "CLASSIFICATION_TYPE": "U", "NORAD_CAT_ID": 41550, "ELEMENT_SET_NO": 999, "REV_AT_EPOCH": 5964, "BSTAR": 0, "MEAN_MOTION_DOT": 7.3e-07, "MEAN_MOTION_DDOT": 0}, "tle": {"line1": "1 41550U 16030B   25355.90560699  .00000073  00000+0  00000+0 0  9997", "line2": "2 41550  55.1488 226.5692 0000571 197.0028 163.1021  1.70473441 59649"}}, "geometry": {"type": "Point", "coordinates": [3.286664923913046, 44.522787858700966]}}, {"type": "Feature", "properties": {"norad_id": 41586, "name": "BEIDOU-2 G7 (C03)", "group": "gnss", "lat": 1.7922372425550233, "lon": 153.7914787483722, "alt_km": 35784.71566371071, "timestamp": "2025-12-23T20:42:37.317726+00:00", "meta": {"OBJECT_NAME": "BEIDOU-2 G7 (C03)", "OBJECT_ID": "2016-037A", "EPOCH": "2025-12-23T13:08:38.014080", "MEAN_MOTION": 1.00269426, "ECCENTRICITY": 0.000514, "INCLINATION": 1.7815, "RA_OF_ASC_NODE": 67.9389, "ARG_OF_PERICENTER": 0.465, "MEAN_ANOMALY": 331.5304, "EPHEMERIS_TYPE": 0, "CLASSIFICATION_TYPE": "U", "NORAD_CAT_ID": 41586, "ELEMENT_SET_NO": 999, "REV_AT_EPOCH": 512, "BSTAR": 0, "MEAN_MOTION_DOT": -3.33e-06, "MEAN_MOTION_DDOT": 0}, "tle": {"line1": "1 41586U 16037A   25357.54766220 -.00000333  00000+0  00000+0 0  9993", "line2": "2 41586   1.7815  67.9389 0005140   0.4650 331.5304  1.00269426  5122"}}, "geometry": {"type": "Point", "coordinates": [153.7914787483722, 1.7922372425550233]}}, {"type": "Feature", "properties": {"norad_id": 41589, "name": "EUTELSAT 117 WEST B (WAAS/PRN 131)", "group": "gnss", "lat": 0.008276221882171109, "lon": -73.71744383193682, "alt_km": 35785.87234222042, "timestamp": "2025-12-23T20:42:37.317740+00:00", "meta": {"OBJECT_NAME": "EUTELSAT 117 WEST B (WAAS/PRN 131)", "OBJECT_ID": "2016-038B", "EPOCH": "2025-12-23T06:49:57.184896", "MEAN_MOTION": 1.00269393, "ECCENTRICITY": 2.146e-05, "INCLINATION": 0.0095, "RA_OF_ASC_NODE": 152.625, "ARG_OF_PERICENTER": 152.4862, "MEAN_ANOMALY": 132.4463, "EPHEMERIS_TYPE": 0, "CLASSIFICATION_TYPE": "U", "NORAD_CAT_ID": 41589, "ELEMENT_SET_NO": 999, "REV_AT_EPOCH": 3489, "BSTAR": 0, "MEAN_MOTION_DOT": 1e-07, "MEAN_MOTION_DDOT": 0}, "tle": {"line1": "1 41589U 16038B   25357.28468964  .00000010  00000+0  00000+0 0  9993", "line2": "2 41589   0.0095 152.6250 0000214 152.4862 132.4463  1.00269393 34899"}}, "geometry": {"type": "Point", "coordinates": [-73.71744383193682, 0.008276221882171109]}}, {"type": "Feature", "properties": {"norad_id": 41859, "name": "GSAT0207 (GALILEO 15)", "group": "gnss", "lat": -38.75310837736326, "lon": 72.33469605849298, "alt_km": 23219.62808297897, "timestamp": "2025-12-23T20:42:37.317752+00:00", "meta": {"OBJECT_NAME": "GSAT0207 (GALILEO 15)", "OBJECT_ID": "2016-069A", "EPOCH": "2025-12-22T04:24:39.710016", "MEAN_MOTION": 1.70474442, "ECCENTRICITY": 0.00024396, "INCLINATION": 55.3874, "RA_OF_ASC_NODE": 105.9888, "ARG_OF_PERICENTER": 317.4324, "MEAN_ANOMALY": 42.5257, "EPHEMERIS_TYPE": 0, "CLASSIFICATION_TYPE": "U", "NORAD_CAT_ID": 41859, "ELEMENT_SET_NO": 999, "REV_AT_EPOCH": 5638, "BSTAR": 0, "MEAN_MOTION_DOT": 6e-08, "MEAN_MOTION_DDOT": 0}, "tle": {"line1": "1 41859U 16069A   25356.18379294  .00000006  00000+0  00000+0 0  9997", "line2": "2 41859  55.3874 105.9888 0002439 317.4324  42.5257  1.70474442 56382"}}, "geometry": {"type": "Point", "coordinates": [72.33469605849298, -38.75310837736326]}}, {"type": "Feature", "properties": {"norad_id": 41860, "name": "GSAT0212 (GALILEO 16)", "group": "gnss", "lat": 32.21797647484896, "lon": 131.69651821378096, "alt_km": 23212.574425493414, "timestamp": "2025-12-23T20:42:37.317765+00:00", "meta": {"OBJECT_NAME": "GSAT0212 (GALILEO 16)", "OBJECT_ID": "2016-069B", "EPOCH": "2025-12-22T14:58:35.768640", "MEAN_MOTION": 1.70474725, "ECCENTRICITY": 0.00020435, "INCLINATION": 55.3853, "RA_OF_ASC_NODE": 105.972, "ARG_OF_PERICENTER": 18.0995, "MEAN_ANOMALY": 341.8877, "EPHEMERIS_TYPE": 0, "CLASSIFICATION_TYPE": "U", "NORAD_CAT_ID": 41860, "ELEMENT_SET_NO": 999, "REV_AT_EPOCH": 5664, "BSTAR": 0, "MEAN_MOTION_DOT": 8e-08, "MEAN_MOTION_DDOT": 0}, "tle": {"line1": "1 41860U 16069B   25356.62402510  .00000008  00000+0  00000+0 0  9998", "line2": "2 41860  55.3853 105.9720 0002043  18.0995 341.8877  1.70474725 56641"}}, "geometry": {"type": "Point", "coordinates": [131.69651821378096, 32.21797647484896]}}, {"type": "Feature", "properties": {"norad_id": 41861, "name": "GSAT0213 (GALILEO 17)", "group": "gnss", "lat": 4.311974340666523, "lon": -77.03541372442041, "alt_km": 23224.079536010715, "timestamp": "2025-12-23T20:42:37.317777+00:00", "meta": {"OBJECT_NAME": "GSAT0213 (GALILEO 17)", "OBJECT_ID": "2016-069C", "EPOCH": "2025-12-17T17:05:43.699776", "MEAN_MOTION": 1.70474994, "ECCENTRICITY": 0.000259, "INCLINATION": 55.385, "RA_OF_ASC_NODE": 106.1156, "ARG_OF_PERICENTER": 282.1972, "MEAN_ANOMALY": 77.7328, "EPHEMERIS_TYPE": 0, "CLASSIFICATION_TYPE": "U", "NORAD_CAT_ID": 41861, "ELEMENT_SET_NO": 999, "REV_AT_EPOCH": 5642, "BSTAR": 0, "MEAN_MOTION_DOT": -9e-08, "MEAN_MOTION_DDOT": 0}, "tle": {"line1": "1 41861U 16069C   25351.71231134 -.00000009  00000+0  00000+0 0  9998", "line2": "2 41861  55.3850 106.1156 0002590 282.1972  77.7328  1.70474994 56421"}}, "geometry": {"type": "Point", "coordinates": [-77.03541372442041, 4.311974340666523]}}, {"type": "Feature", "properties": {"norad_id": 41862, "name": "GSAT0214 (GALILEO 18)", "group": "gnss", "lat": 55.11522449482545, "lon": -172.52721577166358, "alt_km": 23220.146824035925, "timestamp": "2025-12-23T20:42:37.317788+00:00", "meta": {"OBJECT_NAME": "GSAT0214 (GALILEO 18)", "OBJECT_ID": "2016-069D", "EPOCH": "2025-12-21T09:04:04.029024", "MEAN_MOTION": 1.70474854, "ECCENTRICITY": 0.00016223, "INCLINATION": 55.385, "RA_OF_ASC_NODE": 106.0069, "ARG_OF_PERICENTER": 287.8422, "MEAN_ANOMALY": 72.112, "EPHEMERIS_TYPE": 0, "CLASSIFICATION_TYPE": "U", "NORAD_CAT_ID": 41862, "ELEMENT_SET_NO": 999, "REV_AT_EPOCH": 5661, "BSTAR": 0, "MEAN_MOTION_DOT": 2e-08, "MEAN_MOTION_DDOT": 0}, "tle": {"line1": "1 41862U 16069D   25355.37782441  .00000002  00000+0  00000+0 0  9999", "line2": "2 41862  55.3850 106.0069 0001622 287.8422  72.1120  1.70474854 56616"}}, "geometry": {"type": "Point", "coordinates": [-172.52721577166358, 55.11522449482545]}}, {"type": "Feature", "properties": {"norad_id": 42709, "name": "SES-15 (WAAS/PRN 133)", "group": "gnss", "lat": -0.03746844651522415, "lon": -85.87909997523121, "alt_km": 35786.91004026266, "timestamp": "2025-12-23T20:42:37.317846+00:00", "meta": {"OBJECT_NAME": "SES-15 (WAAS/PRN 133)", "OBJECT_ID": "2017-026A", "EPOCH": "2025-12-22T11:37:11.806752", "MEAN_MOTION": 1.00267282, "ECCENTRICITY": 1.521e-05, "INCLINATION": 0.0196, "RA_OF_ASC_NODE": 338.6163, "ARG_OF_PERICENTER": 354.9736, "MEAN_ANOMALY": 162.8448, "EPHEMERIS_TYPE": 0, "CLASSIFICATION_TYPE": "U", "NORAD_CAT_ID": 42709, "ELEMENT_SET_NO": 999, "REV_AT_EPOCH": 566, "BSTAR": 0, "MEAN_MOTION_DOT": 8.2e-07, "MEAN_MOTION_DDOT": 0}, "tle": {"line1": "1 42709U 17026A   25356.48416443  .00000082  00000+0  00000+0 0  9991", "line2": "2 42709   0.0196 338.6163 0000152 354.9736 162.8448  1.00267282  5663"}}, "geometry": {"type": "Point", "coordinates": [-85.87909997523121, -0.03746844651522415]}}]}